[{"OBJECT_NAME":"STARLINK-32564","OBJECT_ID":"2024-207N","EPOCH":"2026-03-09T00:12:29.929536","MEAN_MOTION":15.2759924,"ECCENTRICITY":0.00024261,"INCLINATION":43.003,"RA_OF_ASC_NODE":289.4151,"ARG_OF_PERICENTER":269.0259,"MEAN_ANOMALY":91.0314,"EPHEMERIS_TYPE":0,"CLASSIFICATION_TYPE":"U","NORAD_CAT_ID":61924,"ELEMENT_SET_NO":999,"REV_AT_EPOCH":7457,"BSTAR":0.0010535307,"MEAN_MOTION_DOT":0.0002886,"MEAN_MOTION_DDOT":0},{"OBJECT_NAME":"CZ-4B DEB","OBJECT_ID":"2008-053J","EPOCH":"2026-03-09T11:59:22.469568","MEAN_MOTION":15.1637526,"ECCENTRICITY":0.00601661,"INCLINATION":97.7872,"RA_OF_ASC_NODE":170.5072,"ARG_OF_PERICENTER":304.792,"MEAN_ANOMALY":54.7659,"EPHEMERIS_TYPE":0,"CLASSIFICATION_TYPE":"U","NORAD_CAT_ID":35573,"ELEMENT_SET_NO":999,"REV_AT_EPOCH":91868,"BSTAR":0.0017688276,"MEAN_MOTION_DOT":0.00036031,"MEAN_MOTION_DDOT":0}]
